start=new Date('2022-10-10T00:00:00.000Z').valueOf();
sats=[{"PERIAPSIS":"546.278","RA_OF_ASC_NODE":"158.7975","MEAN_MOTION_DDOT":"0.0000000000000","CENTER_NAME":"EARTH","APOAPSIS":"548.106","GP_ID":"214600882","MEAN_MOTION":"15.06406918","MEAN_ELEMENT_THEORY":"SGP4","MEAN_ANOMALY":"242.4261","ELEMENT_SET_NO":"999","CLASSIFICATION_TYPE":"U","FILE":"3598879","TIME_SYSTEM":"UTC","NORAD_CAT_ID":"46743","ECCENTRICITY":"0.00013200","MEAN_MOTION_DOT":"0.00002892","LAUNCH_DATE":"2020-10-24","TLE_LINE2":"2 46743  53.0534 158.7975 0001320 117.6862 242.4261 15.06406918108757","EPOCH":"2022-10-09T20:52:55.278336","SITE":"AFETR","PERIOD":"95.592","BSTAR":"0.00021295000000","EPHEMERIS_TYPE":"0","REF_FRAME":"TEME","RCS_SIZE":"LARGE","OBJECT_TYPE":"PAYLOAD","INCLINATION":"53.0534","REV_AT_EPOCH":"10875","DECAY_DATE":null,"OBJECT_ID":"2020-074E","COUNTRY_CODE":"US","TLE_LINE1":"1 46743U 20074E   22282.87008424  .00002892  00000-0  21295-3 0  9999","SEMIMAJOR_AXIS":"6925.327","ARG_OF_PERICENTER":"117.6862","OBJECT_NAME":"STARLINK-1892"},{"RA_OF_ASC_NODE":"159.0321","PERIAPSIS":"546.185","GP_ID":"214601130","MEAN_MOTION":"15.06403752","APOAPSIS":"548.219","MEAN_MOTION_DDOT":"0.0000000000000","CENTER_NAME":"EARTH","ELEMENT_SET_NO":"999","CLASSIFICATION_TYPE":"U","MEAN_ELEMENT_THEORY":"SGP4","MEAN_ANOMALY":"283.6835","EPOCH":"2022-10-09T19:42:33.912576","LAUNCH_DATE":"2020-10-24","MEAN_MOTION_DOT":"0.00002567","TLE_LINE2":"2 46744  53.0536 159.0321 0001468  76.4318 283.6835 15.06403752108746","NORAD_CAT_ID":"46744","FILE":"3598879","ECCENTRICITY":"0.00014680","TIME_SYSTEM":"UTC","PERIOD":"95.592","SITE":"AFETR","OBJECT_TYPE":"PAYLOAD","INCLINATION":"53.0536","RCS_SIZE":"LARGE","REF_FRAME":"TEME","BSTAR":"0.00019112000000","EPHEMERIS_TYPE":"0","COUNTRY_CODE":"US","OBJECT_ID":"2020-074F","DECAY_DATE":null,"REV_AT_EPOCH":"10874","ARG_OF_PERICENTER":"76.4318","TLE_LINE1":"1 46744U 20074F   22282.82122584  .00002567  00000-0  19112-3 0  9993","SEMIMAJOR_AXIS":"6925.337","OBJECT_NAME":"STARLINK-1894"},{"PERIAPSIS":"338.539","RA_OF_ASC_NODE":"65.5875","APOAPSIS":"340.729","MEAN_MOTION_DDOT":"0.0000000000000","CENTER_NAME":"EARTH","GP_ID":"214601885","MEAN_MOTION":"15.76758361","MEAN_ELEMENT_THEORY":"SGP4","MEAN_ANOMALY":"313.6732","ELEMENT_SET_NO":"999","CLASSIFICATION_TYPE":"U","LAUNCH_DATE":"2020-10-24","MEAN_MOTION_DOT":"0.00047549","TLE_LINE2":"2 46745  53.0480  65.5875 0001630  46.4423 313.6732 15.76758361110058","FILE":"3598879","ECCENTRICITY":"0.00016300","NORAD_CAT_ID":"46745","TIME_SYSTEM":"UTC","EPOCH":"2022-10-09T17:39:56.514528","SITE":"AFETR","PERIOD":"91.327","REF_FRAME":"TEME","BSTAR":"0.00029247000000","EPHEMERIS_TYPE":"0","OBJECT_TYPE":"PAYLOAD","INCLINATION":"53.0480","RCS_SIZE":"LARGE","DECAY_DATE":null,"REV_AT_EPOCH":"11005","COUNTRY_CODE":"US","OBJECT_ID":"2020-074G","TLE_LINE1":"1 46745U 20074G   22282.73607077  .00047549  00000-0  29247-3 0  9998","SEMIMAJOR_AXIS":"6717.769","ARG_OF_PERICENTER":"46.4423","OBJECT_NAME":"STARLINK-1898"},{"OBJECT_TYPE":"PAYLOAD","INCLINATION":"53.0534","RCS_SIZE":"LARGE","REF_FRAME":"TEME","BSTAR":"0.00053372000000","EPHEMERIS_TYPE":"0","PERIOD":"95.592","SITE":"AFETR","SEMIMAJOR_AXIS":"6925.353","TLE_LINE1":"1 46746U 20074H   22282.83692334  .00007677  00000-0  53372-3 0  9994","ARG_OF_PERICENTER":"77.2259","OBJECT_NAME":"STARLINK-1905","COUNTRY_CODE":"US","OBJECT_ID":"2020-074H","DECAY_DATE":null,"REV_AT_EPOCH":"10874","GP_ID":"214601389","MEAN_MOTION":"15.06398677","APOAPSIS":"548.246","MEAN_MOTION_DDOT":"0.0000000000000","CENTER_NAME":"EARTH","RA_OF_ASC_NODE":"158.9630","PERIAPSIS":"546.189","EPOCH":"2022-10-09T20:05:10.176576","LAUNCH_DATE":"2020-10-24","MEAN_MOTION_DOT":"0.00007677","TLE_LINE2":"2 46746  53.0534 158.9630 0001485  77.2259 282.8895 15.06398677108745","FILE":"3598879","ECCENTRICITY":"0.00014850","NORAD_CAT_ID":"46746","TIME_SYSTEM":"UTC","ELEMENT_SET_NO":"999","CLASSIFICATION_TYPE":"U","MEAN_ELEMENT_THEORY":"SGP4","MEAN_ANOMALY":"282.8895"},{"PERIAPSIS":"546.206","RA_OF_ASC_NODE":"158.7504","MEAN_MOTION_DDOT":"0.0000000000000","CENTER_NAME":"EARTH","APOAPSIS":"548.250","GP_ID":"214600383","MEAN_MOTION":"15.06395363","MEAN_ELEMENT_THEORY":"SGP4","MEAN_ANOMALY":"250.7345","ELEMENT_SET_NO":"999","CLASSIFICATION_TYPE":"U","FILE":"3598879","ECCENTRICITY":"0.00014760","NORAD_CAT_ID":"46747","TIME_SYSTEM":"UTC","LAUNCH_DATE":"2020-10-24","MEAN_MOTION_DOT":"0.00000501","TLE_LINE2":"2 46747  53.0527 158.7504 0001476 109.3803 250.7345 15.06395363108752","EPOCH":"2022-10-09T21:14:09.606624","SITE":"AFETR","PERIOD":"95.592","BSTAR":"0.00005254900000","EPHEMERIS_TYPE":"0","REF_FRAME":"TEME","RCS_SIZE":"LARGE","OBJECT_TYPE":"PAYLOAD","INCLINATION":"53.0527","REV_AT_EPOCH":"10875","DECAY_DATE":null,"OBJECT_ID":"2020-074J","COUNTRY_CODE":"US","ARG_OF_PERICENTER":"109.3803","TLE_LINE1":"1 46747U 20074J   22282.88483341  .00000501  00000-0  52549-4 0  9991","SEMIMAJOR_AXIS":"6925.363","OBJECT_NAME":"STARLINK-1908"},{"SEMIMAJOR_AXIS":"6925.341","TLE_LINE1":"1 46748U 20074K   22282.82585410  .00002198  00000-0  16642-3 0  9993","ARG_OF_PERICENTER":"104.1656","OBJECT_NAME":"STARLINK-1910","DECAY_DATE":null,"REV_AT_EPOCH":"10874","COUNTRY_CODE":"US","OBJECT_ID":"2020-074K","REF_FRAME":"TEME","BSTAR":"0.00016642000000","EPHEMERIS_TYPE":"0","OBJECT_TYPE":"PAYLOAD","INCLINATION":"53.0540","RCS_SIZE":"LARGE","SITE":"AFETR","PERIOD":"95.592","LAUNCH_DATE":"2020-10-24","MEAN_MOTION_DOT":"0.00002198","TLE_LINE2":"2 46748  53.0540 159.0084 0001518 104.1656 255.9502 15.06402384108744","FILE":"3598879","TIME_SYSTEM":"UTC","NORAD_CAT_ID":"46748","ECCENTRICITY":"0.00015180","EPOCH":"2022-10-09T19:49:13.794240","MEAN_ELEMENT_THEORY":"SGP4","MEAN_ANOMALY":"255.9502","ELEMENT_SET_NO":"999","CLASSIFICATION_TYPE":"U","APOAPSIS":"548.258","MEAN_MOTION_DDOT":"0.0000000000000","CENTER_NAME":"EARTH","GP_ID":"214600631","MEAN_MOTION":"15.06402384","PERIAPSIS":"546.155","RA_OF_ASC_NODE":"159.0084"},{"TLE_LINE1":"1 46749U 20074L   22282.83323138  .00005845  00000-0  41097-3 0  9996","ARG_OF_PERICENTER":"97.6654","SEMIMAJOR_AXIS":"6925.348","OBJECT_NAME":"STARLINK-1911","COUNTRY_CODE":"US","OBJECT_ID":"2020-074L","DECAY_DATE":null,"REV_AT_EPOCH":"10874","INCLINATION":"53.0532","OBJECT_TYPE":"PAYLOAD","RCS_SIZE":"LARGE","REF_FRAME":"TEME","EPHEMERIS_TYPE":"0","BSTAR":"0.00041097000000","PERIOD":"95.592","SITE":"AFETR","EPOCH":"2022-10-09T19:59:51.191232","TLE_LINE2":"2 46749  53.0532 158.9844 0001452  97.6654 262.4499 15.06400145108740","LAUNCH_DATE":"2020-10-24","MEAN_MOTION_DOT":"0.00005845","NORAD_CAT_ID":"46749","FILE":"3598879","TIME_SYSTEM":"UTC","ECCENTRICITY":"0.00014520","CLASSIFICATION_TYPE":"U","ELEMENT_SET_NO":"999","MEAN_ANOMALY":"262.4499","MEAN_ELEMENT_THEORY":"SGP4","MEAN_MOTION":"15.06400145","GP_ID":"214601386","APOAPSIS":"548.219","CENTER_NAME":"EARTH","MEAN_MOTION_DDOT":"0.0000000000000","RA_OF_ASC_NODE":"158.9844","PERIAPSIS":"546.208"},{"MEAN_MOTION":"15.06381460","GP_ID":"214601889","APOAPSIS":"548.331","CENTER_NAME":"EARTH","MEAN_MOTION_DDOT":"0.0000000000000","RA_OF_ASC_NODE":"159.0042","PERIAPSIS":"546.210","EPOCH":"2022-10-09T19:54:32.901408","TLE_LINE2":"2 46751  53.0551 159.0042 0001531 121.5192 238.5946 15.06381460108747","MEAN_MOTION_DOT":"0.00005548","LAUNCH_DATE":"2020-10-24","FILE":"3598879","NORAD_CAT_ID":"46751","ECCENTRICITY":"0.00015310","TIME_SYSTEM":"UTC","CLASSIFICATION_TYPE":"U","ELEMENT_SET_NO":"999","MEAN_ANOMALY":"238.5946","MEAN_ELEMENT_THEORY":"SGP4","INCLINATION":"53.0551","OBJECT_TYPE":"PAYLOAD","RCS_SIZE":"LARGE","REF_FRAME":"TEME","EPHEMERIS_TYPE":"0","BSTAR":"0.00039127000000","PERIOD":"95.593","SITE":"AFETR","TLE_LINE1":"1 46751U 20074N   22282.82954747  .00005548  00000-0  39127-3 0  9995","SEMIMAJOR_AXIS":"6925.405","OBJECT_NAME":"STARLINK-1920","ARG_OF_PERICENTER":"121.5192","COUNTRY_CODE":"US","OBJECT_ID":"2020-074N","DECAY_DATE":null,"REV_AT_EPOCH":"10874"},{"EPOCH":"2022-10-09T20:10:28.236576","ECCENTRICITY":"0.00012940","FILE":"3598879","NORAD_CAT_ID":"46752","TIME_SYSTEM":"UTC","MEAN_MOTION_DOT":"0.00002912","LAUNCH_DATE":"2020-10-24","TLE_LINE2":"2 46752  53.0558 158.9438 0001294 116.2007 243.9115 15.06397427108742","ELEMENT_SET_NO":"999","CLASSIFICATION_TYPE":"U","MEAN_ELEMENT_THEORY":"SGP4","MEAN_ANOMALY":"243.9115","GP_ID":"214600883","MEAN_MOTION":"15.06397427","MEAN_MOTION_DDOT":"0.0000000000000","CENTER_NAME":"EARTH","APOAPSIS":"548.118","RA_OF_ASC_NODE":"158.9438","PERIAPSIS":"546.325","TLE_LINE1":"1 46752U 20074P   22282.84060459  .00002912  00000-0  21434-3 0  9990","SEMIMAJOR_AXIS":"6925.356","OBJECT_NAME":"STARLINK-1921","ARG_OF_PERICENTER":"116.2007","OBJECT_ID":"2020-074P","COUNTRY_CODE":"US","REV_AT_EPOCH":"10874","DECAY_DATE":null,"RCS_SIZE":"LARGE","OBJECT_TYPE":"PAYLOAD","INCLINATION":"53.0558","BSTAR":"0.00021434000000","EPHEMERIS_TYPE":"0","REF_FRAME":"TEME","PERIOD":"95.592","SITE":"AFETR"},{"CLASSIFICATION_TYPE":"U","ELEMENT_SET_NO":"999","MEAN_ANOMALY":"289.2557","MEAN_ELEMENT_THEORY":"SGP4","EPOCH":"2022-10-09T20:58:14.842560","FILE":"3598879","NORAD_CAT_ID":"46753","TIME_SYSTEM":"UTC","ECCENTRICITY":"0.00012450","TLE_LINE2":"2 46753  53.0548 158.8009 0001245  70.8567 289.2557 15.06412829108755","LAUNCH_DATE":"2020-10-24","MEAN_MOTION_DOT":"0.00010438","RA_OF_ASC_NODE":"158.8009","PERIAPSIS":"546.312","MEAN_MOTION":"15.06412829","GP_ID":"214601131","CENTER_NAME":"EARTH","MEAN_MOTION_DDOT":"0.0000000000000","APOAPSIS":"548.036","OBJECT_ID":"2020-074Q","COUNTRY_CODE":"US","REV_AT_EPOCH":"10875","DECAY_DATE":null,"TLE_LINE1":"1 46753U 20074Q   22282.87378290  .00010438  00000-0  71832-3 0  9998","SEMIMAJOR_AXIS":"6925.309","ARG_OF_PERICENTER":"70.8567","OBJECT_NAME":"STARLINK-1922","PERIOD":"95.591","SITE":"AFETR","RCS_SIZE":"LARGE","INCLINATION":"53.0548","OBJECT_TYPE":"PAYLOAD","EPHEMERIS_TYPE":"0","BSTAR":"0.00071832000000","REF_FRAME":"TEME"}];
